[{"OBJECT_NAME":"CHUANGXIN 1-03 (CX-1-03)","OBJECT_ID":"2011-068A","EPOCH":"2026-03-09T23:48:05.343264","MEAN_MOTION":14.30514213,"ECCENTRICITY":0.00158467,"INCLINATION":98.7066,"RA_OF_ASC_NODE":86.521,"ARG_OF_PERICENTER":50.1728,"MEAN_ANOMALY":9.9604,"EPHEMERIS_TYPE":0,"CLASSIFICATION_TYPE":"U","NORAD_CAT_ID":37930,"ELEMENT_SET_NO":999,"REV_AT_EPOCH":74647,"BSTAR":-1.9220958e-5,"MEAN_MOTION_DOT":-9.5e-7,"MEAN_MOTION_DDOT":0},{"OBJECT_NAME":"CZ-6A DEB","OBJECT_ID":"2024-140BB","EPOCH":"2026-03-09T21:53:08.841696","MEAN_MOTION":14.55509227,"ECCENTRICITY":0.01258326,"INCLINATION":88.9552,"RA_OF_ASC_NODE":279.1056,"ARG_OF_PERICENTER":243.0571,"MEAN_ANOMALY":115.774,"EPHEMERIS_TYPE":0,"CLASSIFICATION_TYPE":"U","NORAD_CAT_ID":60650,"ELEMENT_SET_NO":999,"REV_AT_EPOCH":8408,"BSTAR":0.00024700603,"MEAN_MOTION_DOT":1.213e-5,"MEAN_MOTION_DDOT":0}]
